ONEWEB-0570             
1 55149U 23004K   23251.34075973  .00001190  00000+0  21135-3 0  9999
2 55149  86.6317 185.1453 0003502  96.4966 263.6647 14.66369721 35584
ONEWEB-0571             
1 55150U 23004L   23250.37607638  .00001474  00000+0  26372-3 0  9995
2 55150  86.6362 185.6397 0004765  97.3816 262.7939 14.66221881 35447
ONEWEB-0572             
1 55151U 23004M   23250.39109168  .00000097  00000+0  21718-3 0  9992
2 55151  87.9215 207.2930 0001727  66.6253 293.5060 13.17649358 33973
ONEWEB-0573             
1 55152U 23004N   23251.37510978  .00001515  00000+0  27182-3 0  9994
2 55152  86.6330 185.2089 0004393  96.9074 263.2640 14.66103095 35582
ONEWEB-0588             
1 55153U 23004P   23251.34617950  .00001468  00000+0  26278-3 0  9992
2 55153  86.6323 185.2761 0006681 106.0208 254.1742 14.66190091 35579
ONEWEB-0598             
1 55154U 23004Q   23251.39537003 -.00000078  00000+0 -25551-3 0  9999
2 55154  87.8525 222.3088 0002710  68.7710 291.3708 13.11409474 33168
ONEWEB-0599             
1 55155U 23004R   23251.41625947  .00000080  00000+0  17213-3 0  9995
2 55155  87.9171 207.0709 0002237  84.2839 275.8547 13.17647242 34113
ONEWEB-0614             
1 55156U 23004S   23250.39924747 -.00000063  00000+0 -21472-3 0  9997
2 55156  87.8943 222.4508 0001497  89.1389 270.9910 13.11416057 32984
